TRANSPORTER-15CL        
1 66748U 25276CL  25359.05725477  .00016552  00000+0  80254-3 0  9994
2 66748  97.4401  70.6330 0002360 211.0847 149.0248 15.18585354  3995
TRANSPORTER-15CM        
1 66749U 25276CM  25359.12863763  .00010809  00000+0  53594-3 0  9990
2 66749  97.4395  70.6877 0002070 179.1389 180.9849 15.17908328  4000
TRANSPORTER-15CN        
1 66750U 25276CN  25359.05939181  .00009594  00000+0  47408-3 0  9998
2 66750  97.4434  70.6432 0002298 145.4398 214.6985 15.18059382  3992
ICEYE-X58               
1 66751U 25276CP  25359.12909103  .00005359  00000+0  26818-3 0  9995
2 66751  97.4409  70.6955 0002541 195.1042 165.0116 15.17821667  4004
ICEYE-X59               
1 66752U 25276CQ  25359.13242667  .00009461  00000+0  47331-3 0  9993
2 66752  97.4401  70.6907 0001957 223.9830 136.1248 15.17630568  4002
ICEYE-X60               
1 66753U 25276CR  25359.13651213  .00012929  00000+0  64947-3 0  9990
2 66753  97.4403  70.6814 0001114 254.5065 105.6046 15.17406532  4006
ICEYE-X61               
1 66754U 25276CS  25359.12815652  .00005792  00000+0  28923-3 0  9993
2 66754  97.4402  70.6914 0002488 183.2892 176.8326 15.17866182  4000
ICEYE-X62               
1 66755U 25276CT  25359.16668980  .00050406  00000+0  24937-2 0  9990
2 66755  97.4404  70.7190 0000970 212.5527 333.2587 15.17628979  5015
TRANSPORTER-15CU        
1 66756U 25276CU  25359.06102431  .00009802  00000+0  48546-3 0  9991
2 66756  97.4408  70.6323 0001722 151.3420 208.7909 15.17973126  3991
TRANSPORTER-15CV        
1 66757U 25276CV  25359.05938324  .00251049  00000+0  11784-1 0  9993
2 66757  97.4418  70.6377 0002942 179.7228 180.4008 15.18461949  3999
TRANSPORTER-15CW        
1 66758U 25276CW  25359.19099727  .00010189  00000+0  50257-3 0  9992
2 66758  97.4387  70.7570 0001492 134.3862 225.7494 15.18105917  4017
TRANSPORTER-15CX        
1 66759U 25276CX  25359.12325109  .00028944  00000+0  14132-2 0  9991
2 66759  97.4376  70.6918 0003864 143.2888 216.8611 15.18220667  4004
