CCSDS_OMM_VERS = 2.0
CREATION_DATE  = 
ORIGINATOR     = 

OBJECT_NAME    = TRANSPORTER-15CL
OBJECT_ID      = 2025-276CL
CENTER_NAME    = EARTH
REF_FRAME      = TEME
TIME_SYSTEM    = UTC
MEAN_ELEMENT_THEORY = SGP/SGP4

EPOCH          = 2025-12-25T01:22:26.812128
MEAN_MOTION    = 15.18585354
ECCENTRICITY   = .000236
INCLINATION    = 97.4401
RA_OF_ASC_NODE = 70.6330
ARG_OF_PERICENTER = 211.0847
MEAN_ANOMALY   = 149.0248

EPHEMERIS_TYPE = 0
CLASSIFICATION_TYPE = U
NORAD_CAT_ID   = 66748
ELEMENT_SET_NO = 999
REV_AT_EPOCH   = 399
BSTAR          = .80254E-3
MEAN_MOTION_DOT = .16552E-3
MEAN_MOTION_DDOT = 0

CCSDS_OMM_VERS = 2.0
CREATION_DATE  = 
ORIGINATOR     = 

OBJECT_NAME    = TRANSPORTER-15CM
OBJECT_ID      = 2025-276CM
CENTER_NAME    = EARTH
REF_FRAME      = TEME
TIME_SYSTEM    = UTC
MEAN_ELEMENT_THEORY = SGP/SGP4

EPOCH          = 2025-12-25T03:05:14.291232
MEAN_MOTION    = 15.17908328
ECCENTRICITY   = .000207
INCLINATION    = 97.4395
RA_OF_ASC_NODE = 70.6877
ARG_OF_PERICENTER = 179.1389
MEAN_ANOMALY   = 180.9849

EPHEMERIS_TYPE = 0
CLASSIFICATION_TYPE = U
NORAD_CAT_ID   = 66749
ELEMENT_SET_NO = 999
REV_AT_EPOCH   = 400
BSTAR          = .53594E-3
MEAN_MOTION_DOT = .10809E-3
MEAN_MOTION_DDOT = 0

CCSDS_OMM_VERS = 2.0
CREATION_DATE  = 
ORIGINATOR     = 

OBJECT_NAME    = TRANSPORTER-15CN
OBJECT_ID      = 2025-276CN
CENTER_NAME    = EARTH
REF_FRAME      = TEME
TIME_SYSTEM    = UTC
MEAN_ELEMENT_THEORY = SGP/SGP4

EPOCH          = 2025-12-25T01:25:31.452384
MEAN_MOTION    = 15.18059382
ECCENTRICITY   = .0002298
INCLINATION    = 97.4434
RA_OF_ASC_NODE = 70.6432
ARG_OF_PERICENTER = 145.4398
MEAN_ANOMALY   = 214.6985

EPHEMERIS_TYPE = 0
CLASSIFICATION_TYPE = U
NORAD_CAT_ID   = 66750
ELEMENT_SET_NO = 999
REV_AT_EPOCH   = 399
BSTAR          = .47408E-3
MEAN_MOTION_DOT = .9594E-4
MEAN_MOTION_DDOT = 0

CCSDS_OMM_VERS = 2.0
CREATION_DATE  = 
ORIGINATOR     = 

OBJECT_NAME    = ICEYE-X58
OBJECT_ID      = 2025-276CP
CENTER_NAME    = EARTH
REF_FRAME      = TEME
TIME_SYSTEM    = UTC
MEAN_ELEMENT_THEORY = SGP/SGP4

EPOCH          = 2025-12-25T03:05:53.464992
MEAN_MOTION    = 15.17821667
ECCENTRICITY   = .0002541
INCLINATION    = 97.4409
RA_OF_ASC_NODE = 70.6955
ARG_OF_PERICENTER = 195.1042
MEAN_ANOMALY   = 165.0116

EPHEMERIS_TYPE = 0
CLASSIFICATION_TYPE = U
NORAD_CAT_ID   = 66751
ELEMENT_SET_NO = 999
REV_AT_EPOCH   = 400
BSTAR          = .26818E-3
MEAN_MOTION_DOT = .5359E-4
MEAN_MOTION_DDOT = 0

CCSDS_OMM_VERS = 2.0
CREATION_DATE  = 
ORIGINATOR     = 

OBJECT_NAME    = ICEYE-X59
OBJECT_ID      = 2025-276CQ
CENTER_NAME    = EARTH
REF_FRAME      = TEME
TIME_SYSTEM    = UTC
MEAN_ELEMENT_THEORY = SGP/SGP4

EPOCH          = 2025-12-25T03:10:41.664288
MEAN_MOTION    = 15.17630568
ECCENTRICITY   = .0001957
INCLINATION    = 97.4401
RA_OF_ASC_NODE = 70.6907
ARG_OF_PERICENTER = 223.9830
MEAN_ANOMALY   = 136.1248

EPHEMERIS_TYPE = 0
CLASSIFICATION_TYPE = U
NORAD_CAT_ID   = 66752
ELEMENT_SET_NO = 999
REV_AT_EPOCH   = 400
BSTAR          = .47331E-3
MEAN_MOTION_DOT = .9461E-4
MEAN_MOTION_DDOT = 0

CCSDS_OMM_VERS = 2.0
CREATION_DATE  = 
ORIGINATOR     = 

OBJECT_NAME    = ICEYE-X60
OBJECT_ID      = 2025-276CR
CENTER_NAME    = EARTH
REF_FRAME      = TEME
TIME_SYSTEM    = UTC
MEAN_ELEMENT_THEORY = SGP/SGP4

EPOCH          = 2025-12-25T03:16:34.648032
MEAN_MOTION    = 15.17406532
ECCENTRICITY   = .0001114
INCLINATION    = 97.4403
RA_OF_ASC_NODE = 70.6814
ARG_OF_PERICENTER = 254.5065
MEAN_ANOMALY   = 105.6046

EPHEMERIS_TYPE = 0
CLASSIFICATION_TYPE = U
NORAD_CAT_ID   = 66753
ELEMENT_SET_NO = 999
REV_AT_EPOCH   = 400
BSTAR          = .64947E-3
MEAN_MOTION_DOT = .12929E-3
MEAN_MOTION_DDOT = 0

CCSDS_OMM_VERS = 2.0
CREATION_DATE  = 
ORIGINATOR     = 

OBJECT_NAME    = ICEYE-X61
OBJECT_ID      = 2025-276CS
CENTER_NAME    = EARTH
REF_FRAME      = TEME
TIME_SYSTEM    = UTC
MEAN_ELEMENT_THEORY = SGP/SGP4

EPOCH          = 2025-12-25T03:04:32.723328
MEAN_MOTION    = 15.17866182
ECCENTRICITY   = .0002488
INCLINATION    = 97.4402
RA_OF_ASC_NODE = 70.6914
ARG_OF_PERICENTER = 183.2892
MEAN_ANOMALY   = 176.8326

EPHEMERIS_TYPE = 0
CLASSIFICATION_TYPE = U
NORAD_CAT_ID   = 66754
ELEMENT_SET_NO = 999
REV_AT_EPOCH   = 400
BSTAR          = .28923E-3
MEAN_MOTION_DOT = .5792E-4
MEAN_MOTION_DDOT = 0

CCSDS_OMM_VERS = 2.0
CREATION_DATE  = 
ORIGINATOR     = 

OBJECT_NAME    = ICEYE-X62
OBJECT_ID      = 2025-276CT
CENTER_NAME    = EARTH
REF_FRAME      = TEME
TIME_SYSTEM    = UTC
MEAN_ELEMENT_THEORY = SGP/SGP4

EPOCH          = 2025-12-25T04:00:01.998720
MEAN_MOTION    = 15.17628979
ECCENTRICITY   = .000097
INCLINATION    = 97.4404
RA_OF_ASC_NODE = 70.7190
ARG_OF_PERICENTER = 212.5527
MEAN_ANOMALY   = 333.2587

EPHEMERIS_TYPE = 0
CLASSIFICATION_TYPE = U
NORAD_CAT_ID   = 66755
ELEMENT_SET_NO = 999
REV_AT_EPOCH   = 501
BSTAR          = .24937E-2
MEAN_MOTION_DOT = .50406E-3
MEAN_MOTION_DDOT = 0

CCSDS_OMM_VERS = 2.0
CREATION_DATE  = 
ORIGINATOR     = 

OBJECT_NAME    = TRANSPORTER-15CU
OBJECT_ID      = 2025-276CU
CENTER_NAME    = EARTH
REF_FRAME      = TEME
TIME_SYSTEM    = UTC
MEAN_ELEMENT_THEORY = SGP/SGP4

EPOCH          = 2025-12-25T01:27:52.500384
MEAN_MOTION    = 15.17973126
ECCENTRICITY   = .0001722
INCLINATION    = 97.4408
RA_OF_ASC_NODE = 70.6323
ARG_OF_PERICENTER = 151.3420
MEAN_ANOMALY   = 208.7909

EPHEMERIS_TYPE = 0
CLASSIFICATION_TYPE = U
NORAD_CAT_ID   = 66756
ELEMENT_SET_NO = 999
REV_AT_EPOCH   = 399
BSTAR          = .48546E-3
MEAN_MOTION_DOT = .9802E-4
MEAN_MOTION_DDOT = 0

CCSDS_OMM_VERS = 2.0
CREATION_DATE  = 
ORIGINATOR     = 

OBJECT_NAME    = TRANSPORTER-15CV
OBJECT_ID      = 2025-276CV
CENTER_NAME    = EARTH
REF_FRAME      = TEME
TIME_SYSTEM    = UTC
MEAN_ELEMENT_THEORY = SGP/SGP4

EPOCH          = 2025-12-25T01:25:30.711936
MEAN_MOTION    = 15.18461949
ECCENTRICITY   = .0002942
INCLINATION    = 97.4418
RA_OF_ASC_NODE = 70.6377
ARG_OF_PERICENTER = 179.7228
MEAN_ANOMALY   = 180.4008

EPHEMERIS_TYPE = 0
CLASSIFICATION_TYPE = U
NORAD_CAT_ID   = 66757
ELEMENT_SET_NO = 999
REV_AT_EPOCH   = 399
BSTAR          = .11784E-1
MEAN_MOTION_DOT = .251049E-2
MEAN_MOTION_DDOT = 0

CCSDS_OMM_VERS = 2.0
CREATION_DATE  = 
ORIGINATOR     = 

OBJECT_NAME    = TRANSPORTER-15CW
OBJECT_ID      = 2025-276CW
CENTER_NAME    = EARTH
REF_FRAME      = TEME
TIME_SYSTEM    = UTC
MEAN_ELEMENT_THEORY = SGP/SGP4

EPOCH          = 2025-12-25T04:35:02.164128
MEAN_MOTION    = 15.18105917
ECCENTRICITY   = .0001492
INCLINATION    = 97.4387
RA_OF_ASC_NODE = 70.7570
ARG_OF_PERICENTER = 134.3862
MEAN_ANOMALY   = 225.7494

EPHEMERIS_TYPE = 0
CLASSIFICATION_TYPE = U
NORAD_CAT_ID   = 66758
ELEMENT_SET_NO = 999
REV_AT_EPOCH   = 401
BSTAR          = .50257E-3
MEAN_MOTION_DOT = .10189E-3
MEAN_MOTION_DDOT = 0

CCSDS_OMM_VERS = 2.0
CREATION_DATE  = 
ORIGINATOR     = 

OBJECT_NAME    = TRANSPORTER-15CX
OBJECT_ID      = 2025-276CX
CENTER_NAME    = EARTH
REF_FRAME      = TEME
TIME_SYSTEM    = UTC
MEAN_ELEMENT_THEORY = SGP/SGP4

EPOCH          = 2025-12-25T02:57:28.894176
MEAN_MOTION    = 15.18220667
ECCENTRICITY   = .0003864
INCLINATION    = 97.4376
RA_OF_ASC_NODE = 70.6918
ARG_OF_PERICENTER = 143.2888
MEAN_ANOMALY   = 216.8611

EPHEMERIS_TYPE = 0
CLASSIFICATION_TYPE = U
NORAD_CAT_ID   = 66759
ELEMENT_SET_NO = 999
REV_AT_EPOCH   = 400
BSTAR          = .14132E-2
MEAN_MOTION_DOT = .28944E-3
MEAN_MOTION_DDOT = 0

